[{"OBJECT_NAME":"VIASAT-3 F1","OBJECT_ID":"2023-060A","EPOCH":"2026-03-06T04:16:38.860320","MEAN_MOTION":1.00272415,"ECCENTRICITY":6.478e-5,"INCLINATION":0.0193,"RA_OF_ASC_NODE":162.522,"ARG_OF_PERICENTER":277.7457,"MEAN_ANOMALY":58.8982,"EPHEMERIS_TYPE":0,"CLASSIFICATION_TYPE":"U","NORAD_CAT_ID":56370,"ELEMENT_SET_NO":999,"REV_AT_EPOCH":1040,"BSTAR":0,"MEAN_MOTION_DOT":0,"MEAN_MOTION_DDOT":0},{"OBJECT_NAME":"ARCTURUS","OBJECT_ID":"2023-060B","EPOCH":"2026-03-06T15:30:08.767584","MEAN_MOTION":1.00272994,"ECCENTRICITY":7.023e-5,"INCLINATION":2.5103,"RA_OF_ASC_NODE":81.2455,"ARG_OF_PERICENTER":345.2013,"MEAN_ANOMALY":42.9382,"EPHEMERIS_TYPE":0,"CLASSIFICATION_TYPE":"U","NORAD_CAT_ID":56371,"ELEMENT_SET_NO":999,"REV_AT_EPOCH":1043,"BSTAR":0,"MEAN_MOTION_DOT":-6.6e-7,"MEAN_MOTION_DDOT":0},{"OBJECT_NAME":"GS-1","OBJECT_ID":"2023-060C","EPOCH":"2026-03-06T12:05:48.751872","MEAN_MOTION":1.00299102,"ECCENTRICITY":0.00047612,"INCLINATION":2.4607,"RA_OF_ASC_NODE":81.0544,"ARG_OF_PERICENTER":262.892,"MEAN_ANOMALY":85.1835,"EPHEMERIS_TYPE":0,"CLASSIFICATION_TYPE":"U","NORAD_CAT_ID":56372,"ELEMENT_SET_NO":999,"REV_AT_EPOCH":650,"BSTAR":0,"MEAN_MOTION_DOT":-1.79e-6,"MEAN_MOTION_DDOT":0},{"OBJECT_NAME":"BEIDOU-3 G4","OBJECT_ID":"2023-066A","EPOCH":"2026-03-06T19:51:15.568128","MEAN_MOTION":1.0027244,"ECCENTRICITY":0.0002266,"INCLINATION":0.6443,"RA_OF_ASC_NODE":311.2389,"ARG_OF_PERICENTER":156.3494,"MEAN_ANOMALY":154.8091,"EPHEMERIS_TYPE":0,"CLASSIFICATION_TYPE":"U","NORAD_CAT_ID":56564,"ELEMENT_SET_NO":999,"REV_AT_EPOCH":1036,"BSTAR":0,"MEAN_MOTION_DOT":-1.15e-6,"MEAN_MOTION_DDOT":0},{"OBJECT_NAME":"ARABSAT-7B (BADR-8)","OBJECT_ID":"2023-075A","EPOCH":"2026-03-04T08:46:14.649312","MEAN_MOTION":1.00273524,"ECCENTRICITY":0.00054521,"INCLINATION":0.0794,"RA_OF_ASC_NODE":28.0608,"ARG_OF_PERICENTER":324.4726,"MEAN_ANOMALY":327.1364,"EPHEMERIS_TYPE":0,"CLASSIFICATION_TYPE":"U","NORAD_CAT_ID":56757,"ELEMENT_SET_NO":999,"REV_AT_EPOCH":1006,"BSTAR":0,"MEAN_MOTION_DOT":1.33e-6,"MEAN_MOTION_DDOT":0},{"OBJECT_NAME":"NVS-01 (IRNSS-1J)","OBJECT_ID":"2023-076A","EPOCH":"2026-03-06T18:55:38.813952","MEAN_MOTION":1.00273048,"ECCENTRICITY":0.0007203,"INCLINATION":2.413,"RA_OF_ASC_NODE":248.5405,"ARG_OF_PERICENTER":46.0615,"MEAN_ANOMALY":283.3391,"EPHEMERIS_TYPE":0,"CLASSIFICATION_TYPE":"U","NORAD_CAT_ID":56759,"ELEMENT_SET_NO":999,"REV_AT_EPOCH":1008,"BSTAR":0,"MEAN_MOTION_DOT":-3.41e-6,"MEAN_MOTION_DDOT":0},{"OBJECT_NAME":"NUSANTARA TIGA (SATRIA)","OBJECT_ID":"2023-086A","EPOCH":"2026-03-06T19:47:08.463264","MEAN_MOTION":1.00268169,"ECCENTRICITY":0.0005914,"INCLINATION":0.0223,"RA_OF_ASC_NODE":283.648,"ARG_OF_PERICENTER":41.7333,"MEAN_ANOMALY":281.9579,"EPHEMERIS_TYPE":0,"CLASSIFICATION_TYPE":"U","NORAD_CAT_ID":57045,"ELEMENT_SET_NO":999,"REV_AT_EPOCH":873,"BSTAR":0,"MEAN_MOTION_DOT":0,"MEAN_MOTION_DDOT":0},{"OBJECT_NAME":"H2SAT (HEINRICH HERTZ)","OBJECT_ID":"2023-093A","EPOCH":"2026-03-06T19:05:42.434592","MEAN_MOTION":1.00271611,"ECCENTRICITY":0.0001469,"INCLINATION":0.0456,"RA_OF_ASC_NODE":301.6759,"ARG_OF_PERICENTER":164.0836,"MEAN_ANOMALY":345.8572,"EPHEMERIS_TYPE":0,"CLASSIFICATION_TYPE":"U","NORAD_CAT_ID":57213,"ELEMENT_SET_NO":999,"REV_AT_EPOCH":988,"BSTAR":0,"MEAN_MOTION_DOT":-2.0e-8,"MEAN_MOTION_DDOT":0},{"OBJECT_NAME":"SYRACUSE 4B","OBJECT_ID":"2023-093B","EPOCH":"2026-03-06T10:24:38.712096","MEAN_MOTION":1.00271375,"ECCENTRICITY":3.361e-5,"INCLINATION":0.0198,"RA_OF_ASC_NODE":134.7089,"ARG_OF_PERICENTER":276.798,"MEAN_ANOMALY":262.3175,"EPHEMERIS_TYPE":0,"CLASSIFICATION_TYPE":"U","NORAD_CAT_ID":57214,"ELEMENT_SET_NO":999,"REV_AT_EPOCH":593,"BSTAR":0,"MEAN_MOTION_DOT":-5.8e-7,"MEAN_MOTION_DDOT":0},{"OBJECT_NAME":"JUPITER 3 (ECHOSTAR 24)","OBJECT_ID":"2023-108A","EPOCH":"2026-03-04T19:30:25.101792","MEAN_MOTION":1.00271616,"ECCENTRICITY":0.00011128,"INCLINATION":0.0135,"RA_OF_ASC_NODE":129.5247,"ARG_OF_PERICENTER":209.944,"MEAN_ANOMALY":20.4954,"EPHEMERIS_TYPE":0,"CLASSIFICATION_TYPE":"U","NORAD_CAT_ID":57479,"ELEMENT_SET_NO":999,"REV_AT_EPOCH":960,"BSTAR":0,"MEAN_MOTION_DOT":-1.6e-6,"MEAN_MOTION_DDOT":0},{"OBJECT_NAME":"GALAXY 37 (G-37)","OBJECT_ID":"2023-112A","EPOCH":"2026-03-06T13:21:15.463008","MEAN_MOTION":1.00272035,"ECCENTRICITY":0.00020385,"INCLINATION":0.0136,"RA_OF_ASC_NODE":112.6439,"ARG_OF_PERICENTER":238.0643,"MEAN_ANOMALY":246.8634,"EPHEMERIS_TYPE":0,"CLASSIFICATION_TYPE":"U","NORAD_CAT_ID":57493,"ELEMENT_SET_NO":999,"REV_AT_EPOCH":951,"BSTAR":0,"MEAN_MOTION_DOT":4.4e-7,"MEAN_MOTION_DDOT":0},{"OBJECT_NAME":"LUDI TANCE-4 01A","OBJECT_ID":"2023-120A","EPOCH":"2026-03-06T19:31:09.994368","MEAN_MOTION":1.00268733,"ECCENTRICITY":0.0005067,"INCLINATION":15.1734,"RA_OF_ASC_NODE":196.5024,"ARG_OF_PERICENTER":107.5024,"MEAN_ANOMALY":242.9324,"EPHEMERIS_TYPE":0,"CLASSIFICATION_TYPE":"U","NORAD_CAT_ID":57624,"ELEMENT_SET_NO":999,"REV_AT_EPOCH":951,"BSTAR":0,"MEAN_MOTION_DOT":-1.91e-6,"MEAN_MOTION_DDOT":0},{"OBJECT_NAME":"TJS-10","OBJECT_ID":"2023-169A","EPOCH":"2026-03-06T17:41:46.562208","MEAN_MOTION":0.99764814,"ECCENTRICITY":0.0010983,"INCLINATION":2.28,"RA_OF_ASC_NODE":81.7414,"ARG_OF_PERICENTER":234.7724,"MEAN_ANOMALY":230.4499,"EPHEMERIS_TYPE":0,"CLASSIFICATION_TYPE":"U","NORAD_CAT_ID":58204,"ELEMENT_SET_NO":999,"REV_AT_EPOCH":851,"BSTAR":0,"MEAN_MOTION_DOT":-3.2e-6,"MEAN_MOTION_DDOT":0},{"OBJECT_NAME":"ZHONGXING-6E","OBJECT_ID":"2023-172A","EPOCH":"2026-03-06T15:24:38.786112","MEAN_MOTION":1.00267455,"ECCENTRICITY":0.00026556,"INCLINATION":0.0529,"RA_OF_ASC_NODE":267.5543,"ARG_OF_PERICENTER":92.4842,"MEAN_ANOMALY":150.943,"EPHEMERIS_TYPE":0,"CLASSIFICATION_TYPE":"U","NORAD_CAT_ID":58253,"ELEMENT_SET_NO":999,"REV_AT_EPOCH":863,"BSTAR":0,"MEAN_MOTION_DOT":-3.65e-6,"MEAN_MOTION_DDOT":0},{"OBJECT_NAME":"YAOGAN-41","OBJECT_ID":"2023-197A","EPOCH":"2026-03-06T19:40:46.572672","MEAN_MOTION":1.00274293,"ECCENTRICITY":0.0010671,"INCLINATION":3.3183,"RA_OF_ASC_NODE":311.6225,"ARG_OF_PERICENTER":180.4011,"MEAN_ANOMALY":90.9289,"EPHEMERIS_TYPE":0,"CLASSIFICATION_TYPE":"U","NORAD_CAT_ID":58582,"ELEMENT_SET_NO":999,"REV_AT_EPOCH":829,"BSTAR":0,"MEAN_MOTION_DOT":-3.66e-6,"MEAN_MOTION_DDOT":0},{"OBJECT_NAME":"OVZON-3","OBJECT_ID":"2024-003A","EPOCH":"2026-03-06T10:49:08.217984","MEAN_MOTION":1.00274639,"ECCENTRICITY":1.659e-5,"INCLINATION":0.014,"RA_OF_ASC_NODE":159.5003,"ARG_OF_PERICENTER":254.4974,"MEAN_ANOMALY":332.1415,"EPHEMERIS_TYPE":0,"CLASSIFICATION_TYPE":"U","NORAD_CAT_ID":58698,"ELEMENT_SET_NO":999,"REV_AT_EPOCH":641,"BSTAR":0,"MEAN_MOTION_DOT":4.7e-7,"MEAN_MOTION_DDOT":0},{"OBJECT_NAME":"INSAT-3DS","OBJECT_ID":"2024-033A","EPOCH":"2026-03-06T14:28:38.594208","MEAN_MOTION":1.00270259,"ECCENTRICITY":0.00023344,"INCLINATION":0.05,"RA_OF_ASC_NODE":260.9737,"ARG_OF_PERICENTER":101.3712,"MEAN_ANOMALY":101.1819,"EPHEMERIS_TYPE":0,"CLASSIFICATION_TYPE":"U","NORAD_CAT_ID":58990,"ELEMENT_SET_NO":999,"REV_AT_EPOCH":4603,"BSTAR":0,"MEAN_MOTION_DOT":-1.59e-6,"MEAN_MOTION_DDOT":0}]
